[{"OBJECT_NAME":"STARLINK-5396","OBJECT_ID":"2022-177AZ","EPOCH":"2026-03-09T22:00:01.999584","MEAN_MOTION":15.08154697,"ECCENTRICITY":0.00025703,"INCLINATION":43.0004,"RA_OF_ASC_NODE":118.8207,"ARG_OF_PERICENTER":244.0185,"MEAN_ANOMALY":76.2139,"EPHEMERIS_TYPE":0,"CLASSIFICATION_TYPE":"U","NORAD_CAT_ID":54867,"ELEMENT_SET_NO":999,"REV_AT_EPOCH":572,"BSTAR":0.0015164479,"MEAN_MOTION_DOT":0.00023695,"MEAN_MOTION_DDOT":0},{"OBJECT_NAME":"CZ-4B DEB","OBJECT_ID":"2008-053G","EPOCH":"2026-03-08T12:59:24.951264","MEAN_MOTION":14.89391484,"ECCENTRICITY":0.01030319,"INCLINATION":97.6151,"RA_OF_ASC_NODE":98.188,"ARG_OF_PERICENTER":41.7816,"MEAN_ANOMALY":319.121,"EPHEMERIS_TYPE":0,"CLASSIFICATION_TYPE":"U","NORAD_CAT_ID":35571,"ELEMENT_SET_NO":999,"REV_AT_EPOCH":91755,"BSTAR":0.0016985241,"MEAN_MOTION_DOT":0.00017804,"MEAN_MOTION_DDOT":0}]
